{
  "type": "FeatureCollection",
  "features": [
    {
      "type": "Feature",
      "properties": {
        "norad_id": 66851,
        "name": "STARLINK-36094",
        "group": "last-30-days",
        "lat": 16.87283569120592,
        "lon": -80.51053936909582,
        "alt_km": 301.91716959135556,
        "timestamp": "2025-12-13T08:49:14.458174+00:00",
        "meta_object_name": "STARLINK-36094",
        "meta_object_id": "2025-281D",
        "meta_epoch": "2025-12-12T20:00:01.999872",
        "meta_mean_motion": 15.90646371,
        "meta_eccentricity": 0.00016911,
        "meta_inclination": 43.0008,
        "meta_ra_of_asc_node": 121.7987,
        "meta_arg_of_pericenter": 284.2179,
        "meta_mean_anomaly": 48.9891,
        "meta_ephemeris_type": 0,
        "meta_classification_type": "U",
        "meta_norad_cat_id": 66851,
        "meta_element_set_no": 999,
        "meta_rev_at_epoch": 141,
        "meta_bstar": -0.0033998371,
        "meta_mean_motion_dot": -0.00980863,
        "meta_mean_motion_ddot": 0,
        "tle_line1": "1 66851U 25281D   25346.83335648 -.00980863  00000+0 -33998-2 0  9993",
        "tle_line2": "2 66851  43.0008 121.7987 0001691 284.2179  48.9891 15.90646371  1415"
      },
      "geometry": {
        "type": "Point",
        "coordinates": [
          -80.51053936909582,
          16.87283569120592
        ]
      }
    },
    {
      "type": "Feature",
      "properties": {
        "norad_id": 66852,
        "name": "STARLINK-35992",
        "group": "last-30-days",
        "lat": 15.387297925510007,
        "lon": -78.69851249451544,
        "alt_km": 302.03626035770594,
        "timestamp": "2025-12-13T08:49:14.458184+00:00",
        "meta_object_name": "STARLINK-35992",
        "meta_object_id": "2025-281E",
        "meta_epoch": "2025-12-12T20:00:01.999872",
        "meta_mean_motion": 15.90694413,
        "meta_eccentricity": 0.00016275,
        "meta_inclination": 43.0011,
        "meta_ra_of_asc_node": 121.7932,
        "meta_arg_of_pericenter": 286.0426,
        "meta_mean_anomaly": 49.3808,
        "meta_ephemeris_type": 0,
        "meta_classification_type": "U",
        "meta_norad_cat_id": 66852,
        "meta_element_set_no": 999,
        "meta_rev_at_epoch": 141,
        "meta_bstar": -0.003449697,
        "meta_mean_motion_dot": -0.00995955,
        "meta_mean_motion_ddot": 0,
        "tle_line1": "1 66852U 25281E   25346.83335648 -.00995955  00000+0 -34497-2 0  9997",
        "tle_line2": "2 66852  43.0011 121.7932 0001627 286.0426  49.3808 15.90694413  1417"
      },
      "geometry": {
        "type": "Point",
        "coordinates": [
          -78.69851249451544,
          15.387297925510007
        ]
      }
    },
    {
      "type": "Feature",
      "properties": {
        "norad_id": 66853,
        "name": "STARLINK-35986",
        "group": "last-30-days",
        "lat": 13.241815799589771,
        "lon": -76.1563773842741,
        "alt_km": 302.1489609280543,
        "timestamp": "2025-12-13T08:49:14.458194+00:00",
        "meta_object_name": "STARLINK-35986",
        "meta_object_id": "2025-281F",
        "meta_epoch": "2025-12-12T20:00:01.999872",
        "meta_mean_motion": 15.9074033,
        "meta_eccentricity": 0.0001745,
        "meta_inclination": 43.001,
        "meta_ra_of_asc_node": 121.7852,
        "meta_arg_of_pericenter": 281.8086,
        "meta_mean_anomaly": 56.8,
        "meta_ephemeris_type": 0,
        "meta_classification_type": "U",
        "meta_norad_cat_id": 66853,
        "meta_element_set_no": 999,
        "meta_rev_at_epoch": 141,
        "meta_bstar": -0.0034422928,
        "meta_mean_motion_dot": -0.00996227,
        "meta_mean_motion_ddot": 0,
        "tle_line1": "1 66853U 25281F   25346.83335648 -.00996227  00000+0 -34423-2 0  9990",
        "tle_line2": "2 66853  43.0010 121.7852 0001745 281.8086  56.8000 15.90740330  1411"
      },
      "geometry": {
        "type": "Point",
        "coordinates": [
          -76.1563773842741,
          13.241815799589771
        ]
      }
    },
    {
      "type": "Feature",
      "properties": {
        "norad_id": 66854,
        "name": "STARLINK-36087",
        "group": "last-30-days",
        "lat": 11.167742817666559,
        "lon": -73.7688604974584,
        "alt_km": 302.24647284035564,
        "timestamp": "2025-12-13T08:49:14.458205+00:00",
        "meta_object_name": "STARLINK-36087",
        "meta_object_id": "2025-281G",
        "meta_epoch": "2025-12-12T20:00:01.999872",
        "meta_mean_motion": 15.9079079,
        "meta_eccentricity": 0.0001737,
        "meta_inclination": 43.001,
        "meta_ra_of_asc_node": 121.7771,
        "meta_arg_of_pericenter": 279.8327,
        "meta_mean_anomaly": 61.8172,
        "meta_ephemeris_type": 0,
        "meta_classification_type": "U",
        "meta_norad_cat_id": 66854,
        "meta_element_set_no": 999,
        "meta_rev_at_epoch": 141,
        "meta_bstar": -0.0034683999,
        "meta_mean_motion_dot": -0.01005351,
        "meta_mean_motion_ddot": 0,
        "tle_line1": "1 66854U 25281G   25346.83335648 -.01005351  00000+0 -34684-2 0  9990",
        "tle_line2": "2 66854  43.0010 121.7771 0001737 279.8327  61.8172 15.90790790  1419"
      },
      "geometry": {
        "type": "Point",
        "coordinates": [
          -73.7688604974584,
          11.167742817666559
        ]
      }
    },
    {
      "type": "Feature",
      "properties": {
        "norad_id": 66855,
        "name": "STARLINK-36090",
        "group": "last-30-days",
        "lat": 9.460134026355284,
        "lon": -71.84447753029845,
        "alt_km": 302.3046095379905,
        "timestamp": "2025-12-13T08:49:14.458215+00:00",
        "meta_object_name": "STARLINK-36090",
        "meta_object_id": "2025-281H",
        "meta_epoch": "2025-12-12T20:00:01.999872",
        "meta_mean_motion": 15.90833336,
        "meta_eccentricity": 0.0001723,
        "meta_inclination": 43.0012,
        "meta_ra_of_asc_node": 121.771,
        "meta_arg_of_pericenter": 279.0894,
        "meta_mean_anomaly": 65.0312,
        "meta_ephemeris_type": 0,
        "meta_classification_type": "U",
        "meta_norad_cat_id": 66855,
        "meta_element_set_no": 999,
        "meta_rev_at_epoch": 130,
        "meta_bstar": -0.0034586814,
        "meta_mean_motion_dot": -0.01004809,
        "meta_mean_motion_ddot": 0,
        "tle_line1": "1 66855U 25281H   25346.83335648 -.01004809  00000+0 -34587-2 0  9990",
        "tle_line2": "2 66855  43.0012 121.7710 0001723 279.0894  65.0312 15.90833336  1305"
      },
      "geometry": {
        "type": "Point",
        "coordinates": [
          -71.84447753029845,
          9.460134026355284
        ]
      }
    },
    {
      "type": "Feature",
      "properties": {
        "norad_id": 66856,
        "name": "STARLINK-36072",
        "group": "last-30-days",
        "lat": 7.473999817752159,
        "lon": -69.64483993144121,
        "alt_km": 302.47534382928825,
        "timestamp": "2025-12-13T08:49:14.458225+00:00",
        "meta_object_name": "STARLINK-36072",
        "meta_object_id": "2025-281J",
        "meta_epoch": "2025-12-12T20:00:01.999872",
        "meta_mean_motion": 15.90877289,
        "meta_eccentricity": 0.00016554,
        "meta_inclination": 43.001,
        "meta_ra_of_asc_node": 121.7636,
        "meta_arg_of_pericenter": 283.3435,
        "meta_mean_anomaly": 63.6378,
        "meta_ephemeris_type": 0,
        "meta_classification_type": "U",
        "meta_norad_cat_id": 66856,
        "meta_element_set_no": 999,
        "meta_rev_at_epoch": 141,
        "meta_bstar": -0.0034399911,
        "meta_mean_motion_dot": -0.01001959,
        "meta_mean_motion_ddot": 0,
        "tle_line1": "1 66856U 25281J   25346.83335648 -.01001959  00000+0 -34400-2 0  9998",
        "tle_line2": "2 66856  43.0010 121.7636 0001655 283.3435  63.6378 15.90877289  1417"
      },
      "geometry": {
        "type": "Point",
        "coordinates": [
          -69.64483993144121,
          7.473999817752159
        ]
      }
    },
    {
      "type": "Feature",
      "properties": {
        "norad_id": 66857,
        "name": "STARLINK-36083",
        "group": "last-30-days",
        "lat": 5.817624856051929,
        "lon": -67.83479866674178,
        "alt_km": 302.6101704274497,
        "timestamp": "2025-12-13T08:49:14.458235+00:00",
        "meta_object_name": "STARLINK-36083",
        "meta_object_id": "2025-281K",
        "meta_epoch": "2025-12-12T20:00:01.999872",
        "meta_mean_motion": 15.90922646,
        "meta_eccentricity": 0.00017538,
        "meta_inclination": 43.0008,
        "meta_ra_of_asc_node": 121.7578,
        "meta_arg_of_pericenter": 284.2287,
        "meta_mean_anomaly": 65.1227,
        "meta_ephemeris_type": 0,
        "meta_classification_type": "U",
        "meta_norad_cat_id": 66857,
        "meta_element_set_no": 999,
        "meta_rev_at_epoch": 141,
        "meta_bstar": -0.003457557,
        "meta_mean_motion_dot": -0.01008723,
        "meta_mean_motion_ddot": 0,
        "tle_line1": "1 66857U 25281K   25346.83335648 -.01008723  00000+0 -34576-2 0  9999",
        "tle_line2": "2 66857  43.0008 121.7578 0001753 284.2287  65.1227 15.90922646  1412"
      },
      "geometry": {
        "type": "Point",
        "coordinates": [
          -67.83479866674178,
          5.817624856051929
        ]
      }
    }
  ]
}